     2.100          NAVIGATION                              RINEX VERSION / TYPE
fic2rin                                 06/20/2015 00:44:50 PGM / RUN BY / DATE
                                                            END OF HEADER
25 15  6 19 16  0  0.0 -.361585989594D-05 -.420641299570D-11  .000000000000D+00
     .520000000000D+02  .451562500000D+02  .441375527920D-08  .257405930621D+01
     .221468508244D-05  .465376570355D-02  .198371708393D-05  .515366653633D+04
     .489600000000D+06 -.260770320892D-07  .187744562056D+01 -.102445483208D-06
     .978052482897D+00  .349906250000D+03  .743814894007D+00 -.817284043161D-08
     .132148361653D-09  .100000000000D+01  .184900000000D+04  .000000000000D+00
     .240000000000D+01  .000000000000D+00  .558793544769D-08  .520000000000D+02
     .482406000000D+06  .400000000000D+01
26 15  6 19 16  0  0.0 -.521540641785D-07 -.261479726760D-11  .000000000000D+00
     .200000000000D+01  .506562500000D+02  .496199240119D-08  .737256317731D+00
     .279769301414D-05  .319414772093D-03  .207871198654D-05  .515358721542D+04
     .489600000000D+06  .316649675369D-07  .187446236780D+01  .353902578354D-07
     .960166758685D+00  .339937500000D+03  .125155396795D+01 -.853535553182D-08
     .164292557730D-09  .100000000000D+01  .184900000000D+04  .000000000000D+00
     .240000000000D+01  .000000000000D+00  .745058059692D-08  .258000000000D+03
     .482406000000D+06  .400000000000D+01
28 15  6 19 16  0  0.0  .447928905487D-03  .261479726760D-11  .000000000000D+00
     .420000000000D+02  .332500000000D+02  .433518057767D-08  .108423011156D+01
     .145100057125D-05  .195442655822D-01  .278092920780D-05  .515369485664D+04
     .489600000000D+06 -.389292836189D-06  .194838530509D+01 -.165775418282D-06
     .988739768020D+00  .346687500000D+03 -.166217240342D+01 -.840142138149D-08
     .682171272315D-10  .100000000000D+01  .184900000000D+04  .000000000000D+00
     .240000000000D+01  .000000000000D+00 -.111758708954D-07  .420000000000D+02
     .482406000000D+06  .400000000000D+01
29 15  6 19 16  0  0.0  .617594458163D-03  .216004991671D-11  .000000000000D+00
     .600000000000D+02 -.112718750000D+03  .414874424042D-08  .280969005101D+01
    -.589154660702D-05  .118860392831D-02  .674836337566D-05  .515375082970D+04
     .489600000000D+06 -.409781932831D-07  .297880335317D+01  .540167093277D-07
     .973912775833D+00  .256625000000D+03 -.537467570585D+00 -.794604527039D-08
    -.370015412627D-09  .100000000000D+01  .184900000000D+04  .000000000000D+00
     .240000000000D+01  .000000000000D+00 -.977888703346D-08  .600000000000D+02
     .482406000000D+06  .400000000000D+01
30 15  6 19 16  0  0.0 -.408436171710D-04  .682121026330D-11  .000000000000D+00
     .109000000000D+03  .892812500000D+02  .454697511405D-08 -.239320640830D+01
     .471062958241D-05  .152503908612D-02  .966154038906D-05  .515373443794D+04
     .489600000000D+06 -.242143869400D-07  .903732288740D+00 -.745058059692D-08
     .955934026124D+00  .195843750000D+03  .292347117006D+01 -.797033199632D-08
     .118576367753D-09  .100000000000D+01  .184900000000D+04  .000000000000D+00
     .240000000000D+01  .000000000000D+00  .325962901115D-08  .109000000000D+03
     .482406000000D+06  .400000000000D+01
31 15  6 19 16  0  0.0  .312448479235D-03 -.113686837722D-11  .000000000000D+00
     .430000000000D+02  .100437500000D+03  .406731227703D-08 -.264482104430D+01
     .529736280441D-05  .802744610701D-02  .103823840618D-04  .515354089165D+04
     .489600000000D+06 -.113621354103D-06  .862586567907D+00  .949949026108D-07
     .975094207993D+00  .187312500000D+03 -.525368543183D+00 -.763317509524D-08
     .767889128522D-10  .100000000000D+01  .184900000000D+04  .000000000000D+00
     .240000000000D+01  .000000000000D+00 -.135041773319D-07  .430000000000D+02
     .482406000000D+06  .400000000000D+01
32 15  6 19 16  0  0.0 -.121348071843D-03  .966338120634D-11  .000000000000D+00
     .380000000000D+02  .150937500000D+02  .505949646262D-08 -.203276266020D+01
     .745058059692D-06  .112571209902D-01  .569224357605D-05  .515373881149D+04
     .489600000000D+06 -.745058059692D-07 -.118259006109D+01 -.156462192535D-06
     .946486313914D+00  .263687500000D+03  .603735348686D-01 -.821605651745D-08
     .379301513716D-09  .100000000000D+01  .184900000000D+04  .000000000000D+00
     .240000000000D+01  .000000000000D+00 -.372529029846D-08  .380000000000D+02
     .482406000000D+06  .400000000000D+01
28 15  6 19 15 58 56.0  .447927042842D-03  .261479726760D-11  .000000000000D+00
     .440000000000D+02  .332500000000D+02  .433518057767D-08  .107489519619D+01
     .145100057125D-05  .195442643017D-01  .278092920780D-05  .515369486618D+04
     .489536000000D+06 -.389292836189D-06  .194838583905D+01 -.165775418282D-06
     .988739760705D+00  .346687500000D+03 -.166217233759D+01 -.840142138149D-08
     .682171272315D-10  .100000000000D+01  .184900000000D+04  .000000000000D+00
     .240000000000D+01  .000000000000D+00 -.111758708954D-07  .440000000000D+02
     .483516000000D+06  .400000000000D+01
26 15  6 19 15 59 44.0 -.521540641785D-07 -.261479726760D-11  .000000000000D+00
     .280000000000D+02  .506562500000D+02  .496199240119D-08  .734926892792D+00
     .279769301414D-05  .319410930388D-03  .207871198654D-05  .515358721924D+04
     .489584000000D+06  .316649675369D-07  .187446250092D+01  .353902578354D-07
     .960166744056D+00  .339937500000D+03  .125154950459D+01 -.853535553182D-08
     .164292557730D-09  .100000000000D+01  .184900000000D+04  .000000000000D+00
     .240000000000D+01  .000000000000D+00  .745058059692D-08  .280000000000D+02
     .486846000000D+06  .400000000000D+01
21 15  6 19 15 59 44.0 -.456668436527D-03 -.329691829393D-11  .000000000000D+00
     .230000000000D+02 -.337500000000D+02  .458947688442D-08  .285018607529D+01
    -.182166695595D-05  .224643141264D-01  .113323330879D-04  .515381101036D+04
     .489584000000D+06  .160187482834D-06 -.232870719721D+01 -.171363353729D-06
     .934142326732D+00  .139906250000D+03 -.189981710657D+01 -.760067374143D-08
     .280725979078D-09  .100000000000D+01  .184900000000D+04  .000000000000D+00
     .240000000000D+01  .000000000000D+00 -.116415321827D-07  .230000000000D+02
     .487656000000D+06  .400000000000D+01
10 15  6 19 15 59 44.0 -.179486814886D-03 -.136424205266D-11  .000000000000D+00
     .400000000000D+01  .220937500000D+02  .528486299290D-08  .141632857255D+01
     .106915831566D-05  .147632524604D-01  .581517815590D-05  .515368548012D+04
     .489584000000D+06 -.307336449623D-06 -.125656688350D+01  .521540641785D-07
     .940805421191D+00  .259500000000D+03  .933618056391D+00 -.857821445992D-08
     .196436753808D-09  .100000000000D+01  .184900000000D+04  .000000000000D+00
     .240000000000D+01  .000000000000D+00 -.279396772385D-08  .400000000000D+01
     .488316000000D+06  .400000000000D+01
28 15  6 19 17 58 56.0  .447946134955D-03  .261479726760D-11  .000000000000D+00
     .450000000000D+02  .391875000000D+02  .413374361559D-08  .212504969884D+01
     .169500708580D-05  .195438718656D-01  .218115746975D-05  .515369532967D+04
     .496736000000D+06  .186264514923D-06  .194832732964D+01 -.245869159698D-06
     .988743069826D+00  .348718750000D+03 -.166216052014D+01 -.782568311397D-08
     .960754304987D-10  .100000000000D+01  .184900000000D+04  .000000000000D+00
     .240000000000D+01  .000000000000D+00 -.111758708954D-07  .450000000000D+02
     .489606000000D+06  .400000000000D+01
10 15  6 19 17 59 44.0 -.179497059435D-03 -.136424205266D-11  .000000000000D+00
     .520000000000D+02  .232187500000D+02  .507806866480D-08  .246653976620D+01
     .104121863842D-05  .147635228932D-01  .583007931709D-05  .515368444824D+04
     .496784000000D+06  .428408384323D-07 -.125662775845D+01 -.270083546638D-06
     .940809239407D+00  .255781250000D+03  .933585986301D+00 -.812105256015D-08
     .293583657509D-09  .100000000000D+01  .184900000000D+04  .000000000000D+00
     .240000000000D+01  .000000000000D+00 -.279396772385D-08  .520000000000D+02
     .489606000000D+06  .400000000000D+01
21 15  6 19 17 59 44.0 -.456692185253D-03 -.329691829393D-11  .000000000000D+00
     .360000000000D+02 -.246562500000D+02  .466376569313D-08 -.238295289740D+01
    -.140629708767D-05  .224658127408D-01  .106319785118D-04  .515380787086D+04
     .496784000000D+06  .229105353355D-06 -.232876246480D+01 -.819563865662D-07
     .934144645457D+00  .154875000000D+03 -.189976550214D+01 -.762103173228D-08
     .360729311538D-09  .100000000000D+01  .184900000000D+04  .000000000000D+00
     .240000000000D+01  .000000000000D+00 -.116415321827D-07  .360000000000D+02
     .489606000000D+06  .400000000000D+01
26 15  6 19 17 59 44.0 -.712461769581D-07 -.261479726760D-11  .000000000000D+00
     .290000000000D+02  .467500000000D+02  .492770525870D-08  .178319138282D+01
     .247918069363D-05  .319517916068D-03  .195950269699D-05  .515358840752D+04
     .496784000000D+06 -.111758708954D-07  .187440098814D+01 -.465661287308D-07
     .960168404468D+00  .342625000000D+03  .125352183561D+01 -.846142388084D-08
     .212866009581D-09  .100000000000D+01  .184900000000D+04  .000000000000D+00
     .240000000000D+01  .000000000000D+00  .745058059692D-08  .290000000000D+02
     .489606000000D+06  .400000000000D+01
 1 15  6 19 18  0  0.0 -.405590981245D-05  .568434188608D-12  .000000000000D+00
     .850000000000D+02 -.417187500000D+02  .419624621907D-08 -.790460591411D+00
    -.225566327572D-05  .437470315956D-02  .112168490887D-04  .515366889572D+04
     .496800000000D+06  .152736902237D-06 -.230511332904D+01  .242143869400D-07
     .962418476341D+00  .165281250000D+03  .391353473557D+00 -.778103839720D-08
     .164649715464D-09  .100000000000D+01  .184900000000D+04  .000000000000D+00
     .240000000000D+01  .000000000000D+00  .558793544769D-08  .850000000000D+02
     .489606000000D+06  .400000000000D+01
